{
  "type": "FeatureCollection",
  "features": [
    {
      "type": "Feature",
      "properties": {
        "norad_id": 64694,
        "name": "GOSAT-GW (IBUKI GW)",
        "group": "resource",
        "lat": 0.12986674625033048,
        "lon": 113.72878559209194,
        "alt_km": 671.9444488583904,
        "timestamp": "2025-12-24T09:46:30.653477+00:00",
        "meta_object_name": "GOSAT-GW (IBUKI GW)",
        "meta_object_id": "2025-141A",
        "meta_epoch": "2025-12-24T04:02:59.237952",
        "meta_mean_motion": 14.67557626,
        "meta_eccentricity": 0.0001409,
        "meta_inclination": 98.0433,
        "meta_ra_of_asc_node": 293.4762,
        "meta_arg_of_pericenter": 85.4769,
        "meta_mean_anomaly": 274.6596,
        "meta_ephemeris_type": 0,
        "meta_classification_type": "U",
        "meta_norad_cat_id": 64694,
        "meta_element_set_no": 999,
        "meta_rev_at_epoch": 2617,
        "meta_bstar": 0.00018082,
        "meta_mean_motion_dot": 9.78e-06,
        "meta_mean_motion_ddot": 0,
        "tle_line1": "1 64694U 25141A   25358.16874118  .00000978  00000+0  18082-3 0  9996",
        "tle_line2": "2 64694  98.0433 293.4762 0001409  85.4769 274.6596 14.67557626 26178"
      },
      "geometry": {
        "type": "Point",
        "coordinates": [
          113.72878559209194,
          0.12986674625033048
        ]
      }
    },
    {
      "type": "Feature",
      "properties": {
        "norad_id": 64876,
        "name": "IONOSFERA-M 3",
        "group": "resource",
        "lat": 47.385734042851986,
        "lon": -49.50092183136055,
        "alt_km": 814.8922298529224,
        "timestamp": "2025-12-24T09:46:30.653488+00:00",
        "meta_object_name": "IONOSFERA-M 3",
        "meta_object_id": "2025-155A",
        "meta_epoch": "2025-12-24T04:28:53.857344",
        "meta_mean_motion": 14.21443697,
        "meta_eccentricity": 0.0001881,
        "meta_inclination": 98.5799,
        "meta_ra_of_asc_node": 319.7297,
        "meta_arg_of_pericenter": 41.4353,
        "meta_mean_anomaly": 318.6967,
        "meta_ephemeris_type": 0,
        "meta_classification_type": "U",
        "meta_norad_cat_id": 64876,
        "meta_element_set_no": 999,
        "meta_rev_at_epoch": 2154,
        "meta_bstar": 5.4285e-05,
        "meta_mean_motion_dot": 7.6e-07,
        "meta_mean_motion_ddot": 0,
        "tle_line1": "1 64876U 25155A   25358.18673446  .00000076  00000+0  54285-4 0  9991",
        "tle_line2": "2 64876  98.5799 319.7297 0001881  41.4353 318.6967 14.21443697 21549"
      },
      "geometry": {
        "type": "Point",
        "coordinates": [
          -49.50092183136055,
          47.385734042851986
        ]
      }
    },
    {
      "type": "Feature",
      "properties": {
        "norad_id": 64877,
        "name": "IONOSFERA-M 4",
        "group": "resource",
        "lat": -48.222685685805146,
        "lon": 130.1343365725091,
        "alt_km": 828.2186323041751,
        "timestamp": "2025-12-24T09:46:30.653498+00:00",
        "meta_object_name": "IONOSFERA-M 4",
        "meta_object_id": "2025-155B",
        "meta_epoch": "2025-12-24T03:38:01.048992",
        "meta_mean_motion": 14.21444817,
        "meta_eccentricity": 0.0001314,
        "meta_inclination": 98.5799,
        "meta_ra_of_asc_node": 319.6147,
        "meta_arg_of_pericenter": 52.4434,
        "meta_mean_anomaly": 307.6863,
        "meta_ephemeris_type": 0,
        "meta_classification_type": "U",
        "meta_norad_cat_id": 64877,
        "meta_element_set_no": 999,
        "meta_rev_at_epoch": 2153,
        "meta_bstar": 5.2625e-05,
        "meta_mean_motion_dot": 7.2e-07,
        "meta_mean_motion_ddot": 0,
        "tle_line1": "1 64877U 25155B   25358.15140103  .00000072  00000+0  52625-4 0  9990",
        "tle_line2": "2 64877  98.5799 319.6147 0001314  52.4434 307.6863 14.21444817 21533"
      },
      "geometry": {
        "type": "Point",
        "coordinates": [
          130.1343365725091,
          -48.222685685805146
        ]
      }
    },
    {
      "type": "Feature",
      "properties": {
        "norad_id": 64899,
        "name": "MICROCARB",
        "group": "resource",
        "lat": -13.842534304623518,
        "lon": 75.55116349166572,
        "alt_km": 665.9060991393399,
        "timestamp": "2025-12-24T09:46:30.653508+00:00",
        "meta_object_name": "MICROCARB",
        "meta_object_id": "2025-156A",
        "meta_epoch": "2025-12-24T03:18:47.862144",
        "meta_mean_motion": 14.72074838,
        "meta_eccentricity": 0.0017604,
        "meta_inclination": 98.0011,
        "meta_ra_of_asc_node": 73.3001,
        "meta_arg_of_pericenter": 110.5921,
        "meta_mean_anomaly": 249.7177,
        "meta_ephemeris_type": 0,
        "meta_classification_type": "U",
        "meta_norad_cat_id": 64899,
        "meta_element_set_no": 999,
        "meta_rev_at_epoch": 2221,
        "meta_bstar": 0.0001197,
        "meta_mean_motion_dot": 7.04e-06,
        "meta_mean_motion_ddot": 0,
        "tle_line1": "1 64899U 25156A   25358.13805396  .00000704  00000+0  11970-3 0  9994",
        "tle_line2": "2 64899  98.0011  73.3001 0017604 110.5921 249.7177 14.72074838 22216"
      },
      "geometry": {
        "type": "Point",
        "coordinates": [
          75.55116349166572,
          -13.842534304623518
        ]
      }
    },
    {
      "type": "Feature",
      "properties": {
        "norad_id": 64900,
        "name": "CO3D 3",
        "group": "resource",
        "lat": -65.16342158190065,
        "lon": -121.7785688047977,
        "alt_km": 513.3398703490748,
        "timestamp": "2025-12-24T09:46:30.653519+00:00",
        "meta_object_name": "CO3D 3",
        "meta_object_id": "2025-156B",
        "meta_epoch": "2025-12-24T03:57:22.727232",
        "meta_mean_motion": 15.20212275,
        "meta_eccentricity": 0.0001315,
        "meta_inclination": 97.4338,
        "meta_ra_of_asc_node": 74.3682,
        "meta_arg_of_pericenter": 74.4142,
        "meta_mean_anomaly": 285.7238,
        "meta_ephemeris_type": 0,
        "meta_classification_type": "U",
        "meta_norad_cat_id": 64900,
        "meta_element_set_no": 999,
        "meta_rev_at_epoch": 2294,
        "meta_bstar": 0.00030688,
        "meta_mean_motion_dot": 6.584e-05,
        "meta_mean_motion_ddot": 0,
        "tle_line1": "1 64900U 25156B   25358.16484638  .00006584  00000+0  30688-3 0  9991",
        "tle_line2": "2 64900  97.4338  74.3682 0001315  74.4142 285.7238 15.20212275 22946"
      },
      "geometry": {
        "type": "Point",
        "coordinates": [
          -121.7785688047977,
          -65.16342158190065
        ]
      }
    },
    {
      "type": "Feature",
      "properties": {
        "norad_id": 64901,
        "name": "CO3D 4",
        "group": "resource",
        "lat": -64.3841388797533,
        "lon": -121.19512036528162,
        "alt_km": 512.3650017822911,
        "timestamp": "2025-12-24T09:46:30.653529+00:00",
        "meta_object_name": "CO3D 4",
        "meta_object_id": "2025-156C",
        "meta_epoch": "2025-12-24T05:32:22.840224",
        "meta_mean_motion": 15.20216396,
        "meta_eccentricity": 0.00014,
        "meta_inclination": 97.4337,
        "meta_ra_of_asc_node": 74.4333,
        "meta_arg_of_pericenter": 159.3105,
        "meta_mean_anomaly": 200.8187,
        "meta_ephemeris_type": 0,
        "meta_classification_type": "U",
        "meta_norad_cat_id": 64901,
        "meta_element_set_no": 999,
        "meta_rev_at_epoch": 2295,
        "meta_bstar": 0.00032923,
        "meta_mean_motion_dot": 7.069e-05,
        "meta_mean_motion_ddot": 0,
        "tle_line1": "1 64901U 25156C   25358.23081991  .00007069  00000+0  32923-3 0  9998",
        "tle_line2": "2 64901  97.4337  74.4333 0001400 159.3105 200.8187 15.20216396 22957"
      },
      "geometry": {
        "type": "Point",
        "coordinates": [
          -121.19512036528162,
          -64.3841388797533
        ]
      }
    },
    {
      "type": "Feature",
      "properties": {
        "norad_id": 64902,
        "name": "CO3D 2",
        "group": "resource",
        "lat": 66.52206088753094,
        "lon": 57.012422753984815,
        "alt_km": 498.1945964922388,
        "timestamp": "2025-12-24T09:46:30.653539+00:00",
        "meta_object_name": "CO3D 2",
        "meta_object_id": "2025-156D",
        "meta_epoch": "2025-12-24T04:44:21.966144",
        "meta_mean_motion": 15.20212844,
        "meta_eccentricity": 7.78e-05,
        "meta_inclination": 97.4337,
        "meta_ra_of_asc_node": 74.2992,
        "meta_arg_of_pericenter": 68.7706,
        "meta_mean_anomaly": 291.3612,
        "meta_ephemeris_type": 0,
        "meta_classification_type": "U",
        "meta_norad_cat_id": 64902,
        "meta_element_set_no": 999,
        "meta_rev_at_epoch": 2294,
        "meta_bstar": 0.00030058,
        "meta_mean_motion_dot": 6.447e-05,
        "meta_mean_motion_ddot": 0,
        "tle_line1": "1 64902U 25156D   25358.19747646  .00006447  00000+0  30058-3 0  9996",
        "tle_line2": "2 64902  97.4337  74.2992 0000778  68.7706 291.3612 15.20212844 22945"
      },
      "geometry": {
        "type": "Point",
        "coordinates": [
          57.012422753984815,
          66.52206088753094
        ]
      }
    }
  ]
}